{
  "norad_id": 65384,
  "name": "STARLINK-35012",
  "history": [
    {
      "epoch": "2026-03-28T14:31:43.467744Z",
      "apogee_km": 551.3460408112287,
      "perigee_km": 547.6328330410361,
      "latitude_deg": -2.8215247985911786e-06,
      "longitude_deg": -83.8183252294273,
      "height_km": 552.4206335787675,
      "semi_major_axis_km": 6927.626436926133,
      "eccentricity": 0.000268,
      "inclination_deg": 97.6032,
      "raan_deg": 320.1362,
      "arg_perigee_deg": 86.0011,
      "mean_anomaly_deg": 274.1522,
      "mean_motion_rev_day": 15.0565708
    },
    {
      "epoch": "2026-03-29T04:53:01.307040Z",
      "apogee_km": 551.2778799808866,
      "perigee_km": 547.6672098860663,
      "latitude_deg": 3.503316255079691e-06,
      "longitude_deg": 60.857506412180285,
      "height_km": 552.2658885515403,
      "semi_major_axis_km": 6927.609544933476,
      "eccentricity": 0.0002606,
      "inclination_deg": 97.6029,
      "raan_deg": 320.7259,
      "arg_perigee_deg": 81.4793,
      "mean_anomaly_deg": 278.6729,
      "mean_motion_rev_day": 15.05662587
    },
    {
      "epoch": "2026-03-30T04:48:31.382208Z",
      "apogee_km": 551.5465220436799,
      "perigee_km": 547.4640624408612,
      "latitude_deg": 8.693475625475177e-05,
      "longitude_deg": 61.98201707912159,
      "height_km": 552.64288671146,
      "semi_major_axis_km": 6927.64229224227,
      "eccentricity": 0.00029465,
      "inclination_deg": 97.6031,
      "raan_deg": 321.7083,
      "arg_perigee_deg": 92.1732,
      "mean_anomaly_deg": 267.9833,
      "mean_motion_rev_day": 15.05651911
    },
    {
      "epoch": "2026-03-30T14:22:43.471200Z",
      "apogee_km": 551.4029459857074,
      "perigee_km": 547.6146321624092,
      "latitude_deg": 1.6900127417681726e-05,
      "longitude_deg": -81.56757091228381,
      "height_km": 552.302937198315,
      "semi_major_axis_km": 6927.645789074058,
      "eccentricity": 0.00027342,
      "inclination_deg": 97.6027,
      "raan_deg": 322.1021,
      "arg_perigee_deg": 81.9139,
      "mean_anomaly_deg": 278.2398,
      "mean_motion_rev_day": 15.05650771
    },
    {
      "epoch": "2026-03-31T09:31:07.608576Z",
      "apogee_km": 551.2851827935056,
      "perigee_km": 547.7258986089446,
      "latitude_deg": -4.445078506639897e-05,
      "longitude_deg": -8.668787584306477,
      "height_km": 552.3318593009068,
      "semi_major_axis_km": 6927.642540701225,
      "eccentricity": 0.00025689,
      "inclination_deg": 97.6025,
      "raan_deg": 322.8875,
      "arg_perigee_deg": 82.4255,
      "mean_anomaly_deg": 277.7263,
      "mean_motion_rev_day": 15.0565183
    },
    {
      "epoch": "2026-04-01T09:26:37.530816Z",
      "apogee_km": 551.2652476688909,
      "perigee_km": 547.7390793346676,
      "latitude_deg": 2.3232329471386212e-05,
      "longitude_deg": -7.543635185512708,
      "height_km": 552.3322916265155,
      "semi_major_axis_km": 6927.639163501779,
      "eccentricity": 0.0002545,
      "inclination_deg": 97.6027,
      "raan_deg": 323.8699,
      "arg_perigee_deg": 82.4779,
      "mean_anomaly_deg": 277.6737,
      "mean_motion_rev_day": 15.05652931
    },
    {
      "epoch": "2026-04-02T15:44:56.521536Z",
      "apogee_km": 551.3977941053809,
      "perigee_km": 547.7251440389873,
      "latitude_deg": 8.81944438939054e-06,
      "longitude_deg": -102.1228534940228,
      "height_km": 552.3886641865621,
      "semi_major_axis_km": 6927.698469072184,
      "eccentricity": 0.00026507,
      "inclination_deg": 97.6027,
      "raan_deg": 325.1144,
      "arg_perigee_deg": 82.6942,
      "mean_anomaly_deg": 277.4586,
      "mean_motion_rev_day": 15.05633597
    },
    {
      "epoch": "2026-04-02T22:07:44.649120Z",
      "apogee_km": 551.3636947496188,
      "perigee_km": 547.7000663388317,
      "latitude_deg": 2.5317191553048886e-05,
      "longitude_deg": 162.1767941564511,
      "height_km": 552.3403853213771,
      "semi_major_axis_km": 6927.668880544225,
      "eccentricity": 0.00026442,
      "inclination_deg": 97.6028,
      "raan_deg": 325.3766,
      "arg_perigee_deg": 82.0856,
      "mean_anomaly_deg": 278.0671,
      "mean_motion_rev_day": 15.05643243
    },
    {
      "epoch": "2026-04-03T15:40:27.077088Z",
      "apogee_km": 551.3822576807379,
      "perigee_km": 547.6357867119332,
      "latitude_deg": -2.017488374674024e-05,
      "longitude_deg": -101.00023542797277,
      "height_km": 552.2977763018773,
      "semi_major_axis_km": 6927.646022196335,
      "eccentricity": 0.0002704,
      "inclination_deg": 97.6027,
      "raan_deg": 326.0969,
      "arg_perigee_deg": 81.6543,
      "mean_anomaly_deg": 278.499,
      "mean_motion_rev_day": 15.05650695
    },
    {
      "epoch": "2026-04-04T15:35:56.480928Z",
      "apogee_km": 551.402670139777,
      "perigee_km": 547.5190587769621,
      "latitude_deg": -4.729131835790033e-05,
      "longitude_deg": -99.8727065075113,
      "height_km": 552.2412064602571,
      "semi_major_axis_km": 6927.597864458369,
      "eccentricity": 0.0002803,
      "inclination_deg": 97.6025,
      "raan_deg": 327.0795,
      "arg_perigee_deg": 81.7048,
      "mean_anomaly_deg": 278.4496,
      "mean_motion_rev_day": 15.05666395
    },
    {
      "epoch": "2026-04-05T13:55:44.289408Z",
      "apogee_km": 551.497472961084,
      "perigee_km": 547.4617206364537,
      "latitude_deg": 2.3244910041369278e-05,
      "longitude_deg": -74.82197757164815,
      "height_km": 552.242620911608,
      "semi_major_axis_km": 6927.616596798769,
      "eccentricity": 0.00029128,
      "inclination_deg": 97.6025,
      "raan_deg": 327.9965,
      "arg_perigee_deg": 81.5292,
      "mean_anomaly_deg": 278.6265,
      "mean_motion_rev_day": 15.05660288
    },
    {
      "epoch": "2026-04-05T15:31:26.277024Z",
      "apogee_km": 551.4163962164293,
      "perigee_km": 547.5757164499992,
      "latitude_deg": -1.9514749433769457e-05,
      "longitude_deg": -98.7473245957052,
      "height_km": 552.2896618326228,
      "semi_major_axis_km": 6927.633056333214,
      "eccentricity": 0.0002772,
      "inclination_deg": 97.6028,
      "raan_deg": 328.0616,
      "arg_perigee_deg": 82.0104,
      "mean_anomaly_deg": 278.1437,
      "mean_motion_rev_day": 15.05654922
    },
    {
      "epoch": "2026-04-06T04:17:02.152032Z",
      "apogee_km": 551.5231871492051,
      "perigee_km": 547.4446196185472,
      "latitude_deg": 1.5744274562413817e-05,
      "longitude_deg": 69.85355729501174,
      "height_km": 552.2271342778298,
      "semi_major_axis_km": 6927.620903383876,
      "eccentricity": 0.00029437,
      "inclination_deg": 97.6026,
      "raan_deg": 328.586,
      "arg_perigee_deg": 81.0579,
      "mean_anomaly_deg": 279.0981,
      "mean_motion_rev_day": 15.05658884
    },
    {
      "epoch": "2026-04-07T08:59:37.781376Z",
      "apogee_km": 551.6017029643917,
      "perigee_km": 547.3751586890448,
      "latitude_deg": -6.401269671641723e-05,
      "longitude_deg": -0.7953644298201246,
      "height_km": 552.2092943109532,
      "semi_major_axis_km": 6927.625430826718,
      "eccentricity": 0.00030505,
      "inclination_deg": 97.6026,
      "raan_deg": 329.7646,
      "arg_perigee_deg": 80.7647,
      "mean_anomaly_deg": 279.3924,
      "mean_motion_rev_day": 15.05657408
    },
    {
      "epoch": "2026-04-08T15:17:55.984128Z",
      "apogee_km": 551.7155796344241,
      "perigee_km": 547.2958821249767,
      "latitude_deg": 5.6833145390779077e-05,
      "longitude_deg": -95.37201351177916,
      "height_km": 552.1767863345405,
      "semi_major_axis_km": 6927.6427308797,
      "eccentricity": 0.00031899,
      "inclination_deg": 97.6026,
      "raan_deg": 331.0084,
      "arg_perigee_deg": 79.8698,
      "mean_anomaly_deg": 280.2889,
      "mean_motion_rev_day": 15.05651768
    },
    {
      "epoch": "2026-04-09T21:36:15.768000Z",
      "apogee_km": 551.7360866014396,
      "perigee_km": 547.3453244716711,
      "latitude_deg": 1.8486324895145613e-05,
      "longitude_deg": 170.04535256446266,
      "height_km": 552.2782945988286,
      "semi_major_axis_km": 6927.677705536555,
      "eccentricity": 0.0003169,
      "inclination_deg": 97.6031,
      "raan_deg": 332.2528,
      "arg_perigee_deg": 81.562,
      "mean_anomaly_deg": 278.5966,
      "mean_motion_rev_day": 15.05640366
    },
    {
      "epoch": "2026-04-10T08:46:09.859296Z",
      "apogee_km": 551.7173443451857,
      "perigee_km": 547.2947370280108,
      "latitude_deg": -6.257069702204508e-05,
      "longitude_deg": 2.5702504648422795,
      "height_km": 552.2494542735011,
      "semi_major_axis_km": 6927.6430406865975,
      "eccentricity": 0.0003192,
      "inclination_deg": 97.6033,
      "raan_deg": 332.7116,
      "arg_perigee_deg": 81.7763,
      "mean_anomaly_deg": 278.3825,
      "mean_motion_rev_day": 15.05651667
    },
    {
      "epoch": "2026-04-11T21:27:14.827968Z",
      "apogee_km": 551.7085655451656,
      "perigee_km": 547.2236352979517,
      "latitude_deg": 4.743179693877027e-05,
      "longitude_deg": 172.29954250629638,
      "height_km": 552.196326616453,
      "semi_major_axis_km": 6927.603100421558,
      "eccentricity": 0.0003237,
      "inclination_deg": 97.6032,
      "raan_deg": 334.2182,
      "arg_perigee_deg": 81.553,
      "mean_anomaly_deg": 278.6064,
      "mean_motion_rev_day": 15.05664688
    },
    {
      "epoch": "2026-04-13T05:21:14.318496Z",
      "apogee_km": 551.7505907664981,
      "perigee_km": 547.2427795275726,
      "latitude_deg": -6.077233895801056e-06,
      "longitude_deg": 53.80189123016075,
      "height_km": 552.1755839149727,
      "semi_major_axis_km": 6927.633685147035,
      "eccentricity": 0.00032535,
      "inclination_deg": 97.6037,
      "raan_deg": 335.5285,
      "arg_perigee_deg": 80.2759,
      "mean_anomaly_deg": 279.8835,
      "mean_motion_rev_day": 15.05654717
    }
  ]
}